start=new Date('2022-03-19T00:00:00.000Z').valueOf();
sats=[{"OBJECT_TYPE":"PAYLOAD","GP_ID":"199103262","FILE":"3364757","REV_AT_EPOCH":"4633","MEAN_ELEMENT_THEORY":"SGP4","SEMIMAJOR_AXIS":"6925.296","PERIOD":"95.591","MEAN_MOTION":"15.06417200","OBJECT_ID":"2021-041G","PERIAPSIS":"546.263","INCLINATION":"53.0540","TLE_LINE2":"2 48559  53.0540 170.2690 0001296  59.8361 300.2757 15.06417200 46331","RCS_SIZE":"LARGE","NORAD_CAT_ID":"48559","ELEMENT_SET_NO":"999","ARG_OF_PERICENTER":"59.8361","CLASSIFICATION_TYPE":"U","OBJECT_NAME":"STARLINK-2167","RA_OF_ASC_NODE":"170.2690","COUNTRY_CODE":"US","BSTAR":"0.00052816000000","SITE":"AFETR","MEAN_MOTION_DDOT":"0.0000000000000","TLE_LINE1":"1 48559U 21041G   22077.60565434  .00007598  00000-0  52816-3 0  9994","MEAN_ANOMALY":"300.2757","DECAY_DATE":null,"REF_FRAME":"TEME","APOAPSIS":"548.058","TIME_SYSTEM":"UTC","LAUNCH_DATE":"2021-05-15","ECCENTRICITY":"0.00012960","EPOCH":"2022-03-18T14:32:08.534976","EPHEMERIS_TYPE":"0","MEAN_MOTION_DOT":"0.00007598","CENTER_NAME":"EARTH"},{"BSTAR":"-0.00070531000000","SITE":"AFETR","CLASSIFICATION_TYPE":"U","OBJECT_NAME":"STARLINK-2186","RA_OF_ASC_NODE":"138.8872","ARG_OF_PERICENTER":"77.3272","COUNTRY_CODE":"US","ELEMENT_SET_NO":"999","NORAD_CAT_ID":"48561","RCS_SIZE":"LARGE","MEAN_MOTION":"15.06406108","TLE_LINE2":"2 48561  53.0524 138.8872 0001390  77.3272 235.4386 15.06406108  3604","PERIAPSIS":"546.232","OBJECT_ID":"2021-041J","INCLINATION":"53.0524","PERIOD":"95.592","SEMIMAJOR_AXIS":"6925.330","GP_ID":"199104013","FILE":"3364757","OBJECT_TYPE":"PAYLOAD","MEAN_ELEMENT_THEORY":"SGP4","REV_AT_EPOCH":"360","CENTER_NAME":"EARTH","MEAN_MOTION_DOT":"-0.00010773","LAUNCH_DATE":"2021-05-15","EPHEMERIS_TYPE":"0","ECCENTRICITY":"0.00013900","EPOCH":"2022-03-18T22:00:00.999936","REF_FRAME":"TEME","APOAPSIS":"548.157","TIME_SYSTEM":"UTC","DECAY_DATE":null,"MEAN_MOTION_DDOT":"0.0000000000000","TLE_LINE1":"1 48561U 21041J   22077.91667824 -.00010773  00000-0 -70531-3 0  9992","MEAN_ANOMALY":"235.4386"},{"MEAN_MOTION_DOT":"0.00004167","CENTER_NAME":"EARTH","TIME_SYSTEM":"UTC","APOAPSIS":"548.062","REF_FRAME":"TEME","ECCENTRICITY":"0.00012540","EPOCH":"2022-03-18T17:55:10.922880","EPHEMERIS_TYPE":"0","LAUNCH_DATE":"2021-05-15","DECAY_DATE":null,"MEAN_ANOMALY":"274.5880","TLE_LINE1":"1 48562U 21041K   22077.74665420  .00004167  00000-0  29840-3 0  9999","MEAN_MOTION_DDOT":"0.0000000000000","COUNTRY_CODE":"US","ARG_OF_PERICENTER":"85.5252","RA_OF_ASC_NODE":"169.6500","CLASSIFICATION_TYPE":"U","OBJECT_NAME":"STARLINK-2187","SITE":"AFETR","BSTAR":"0.00029840000000","RCS_SIZE":"LARGE","NORAD_CAT_ID":"48562","ELEMENT_SET_NO":"999","PERIOD":"95.592","PERIAPSIS":"546.325","OBJECT_ID":"2021-041K","INCLINATION":"53.0526","TLE_LINE2":"2 48562  53.0526 169.6500 0001254  85.5252 274.5880 15.06406662 46363","MEAN_MOTION":"15.06406662","REV_AT_EPOCH":"4636","MEAN_ELEMENT_THEORY":"SGP4","OBJECT_TYPE":"PAYLOAD","FILE":"3364757","GP_ID":"199103763","SEMIMAJOR_AXIS":"6925.328"},{"COUNTRY_CODE":"US","CLASSIFICATION_TYPE":"U","OBJECT_NAME":"STARLINK-2188","RA_OF_ASC_NODE":"169.5723","ARG_OF_PERICENTER":"67.0251","SITE":"AFETR","BSTAR":"0.00093471000000","RCS_SIZE":"LARGE","ELEMENT_SET_NO":"999","NORAD_CAT_ID":"48563","PERIOD":"95.591","TLE_LINE2":"2 48563  53.0536 169.5723 0001362  67.0251 293.0882 15.06412132 46362","PERIAPSIS":"546.233","INCLINATION":"53.0536","OBJECT_ID":"2021-041L","MEAN_MOTION":"15.06412132","REV_AT_EPOCH":"4636","MEAN_ELEMENT_THEORY":"SGP4","FILE":"3364757","GP_ID":"199104501","OBJECT_TYPE":"PAYLOAD","SEMIMAJOR_AXIS":"6925.311","MEAN_MOTION_DOT":"0.00013673","CENTER_NAME":"EARTH","TIME_SYSTEM":"UTC","REF_FRAME":"TEME","APOAPSIS":"548.120","EPHEMERIS_TYPE":"0","EPOCH":"2022-03-18T18:21:45.393408","ECCENTRICITY":"0.00013620","LAUNCH_DATE":"2021-05-15","DECAY_DATE":null,"MEAN_ANOMALY":"293.0882","TLE_LINE1":"1 48563U 21041L   22077.76510872  .00013673  00000-0  93471-3 0  9995","MEAN_MOTION_DDOT":"0.0000000000000"},{"TLE_LINE1":"1 48564U 21041M   22077.62504605  .00008455  00000-0  58583-3 0  9995","MEAN_ANOMALY":"297.9006","MEAN_MOTION_DDOT":"0.0000000000000","DECAY_DATE":null,"TIME_SYSTEM":"UTC","REF_FRAME":"TEME","APOAPSIS":"548.181","EPHEMERIS_TYPE":"0","EPOCH":"2022-03-18T15:00:03.978720","ECCENTRICITY":"0.00013890","LAUNCH_DATE":"2021-05-15","MEAN_MOTION_DOT":"0.00008455","CENTER_NAME":"EARTH","MEAN_ELEMENT_THEORY":"SGP4","REV_AT_EPOCH":"4634","FILE":"3364757","GP_ID":"199102763","OBJECT_TYPE":"PAYLOAD","SEMIMAJOR_AXIS":"6925.354","PERIOD":"95.592","TLE_LINE2":"2 48564  53.0535 170.2016 0001389  62.2124 297.9006 15.06398077 46341","PERIAPSIS":"546.258","INCLINATION":"53.0535","OBJECT_ID":"2021-041M","MEAN_MOTION":"15.06398077","RCS_SIZE":"LARGE","ELEMENT_SET_NO":"999","NORAD_CAT_ID":"48564","COUNTRY_CODE":"US","CLASSIFICATION_TYPE":"U","RA_OF_ASC_NODE":"170.2016","OBJECT_NAME":"STARLINK-2190","ARG_OF_PERICENTER":"62.2124","SITE":"AFETR","BSTAR":"0.00058583000000"},{"DECAY_DATE":null,"MEAN_MOTION_DDOT":"0.0000000000000","MEAN_ANOMALY":"287.6492","TLE_LINE1":"1 48565U 21041N   22077.75405547  .00013172  00000-0  90126-3 0  9996","CENTER_NAME":"EARTH","MEAN_MOTION_DOT":"0.00013172","LAUNCH_DATE":"2021-05-15","EPOCH":"2022-03-18T18:05:50.392608","ECCENTRICITY":"0.00013760","EPHEMERIS_TYPE":"0","APOAPSIS":"548.131","REF_FRAME":"TEME","TIME_SYSTEM":"UTC","MEAN_MOTION":"15.06411578","OBJECT_ID":"2021-041N","PERIAPSIS":"546.225","INCLINATION":"53.0530","TLE_LINE2":"2 48565  53.0530 169.6212 0001376  72.4648 287.6492 15.06411578 46366","PERIOD":"95.591","SEMIMAJOR_AXIS":"6925.313","OBJECT_TYPE":"PAYLOAD","FILE":"3364757","GP_ID":"199103514","REV_AT_EPOCH":"4636","MEAN_ELEMENT_THEORY":"SGP4","BSTAR":"0.00090126000000","SITE":"AFETR","ARG_OF_PERICENTER":"72.4648","CLASSIFICATION_TYPE":"U","RA_OF_ASC_NODE":"169.6212","OBJECT_NAME":"STARLINK-2191","COUNTRY_CODE":"US","ELEMENT_SET_NO":"999","NORAD_CAT_ID":"48565","RCS_SIZE":"LARGE"},{"RCS_SIZE":"MEDIUM","ELEMENT_SET_NO":"999","NORAD_CAT_ID":"48566","COUNTRY_CODE":"US","RA_OF_ASC_NODE":"180.1054","CLASSIFICATION_TYPE":"U","OBJECT_NAME":"STARLINK-2214","ARG_OF_PERICENTER":"62.5635","SITE":"AFETR","BSTAR":"0.00071605000000","MEAN_ELEMENT_THEORY":"SGP4","REV_AT_EPOCH":"4620","GP_ID":"199104263","FILE":"3364757","OBJECT_TYPE":"PAYLOAD","SEMIMAJOR_AXIS":"6925.361","PERIOD":"95.592","TLE_LINE2":"2 48566  53.0534 180.1054 0001610  62.5635 297.5518 15.06396052 46201","PERIAPSIS":"546.111","INCLINATION":"53.0534","OBJECT_ID":"2021-041P","MEAN_MOTION":"15.06396052","TIME_SYSTEM":"UTC","REF_FRAME":"TEME","APOAPSIS":"548.341","EPHEMERIS_TYPE":"0","ECCENTRICITY":"0.00016100","EPOCH":"2022-03-18T15:29:14.102304","LAUNCH_DATE":"2021-05-15","MEAN_MOTION_DOT":"0.00010399","CENTER_NAME":"EARTH","MEAN_ANOMALY":"297.5518","TLE_LINE1":"1 48566U 21041P   22077.64530211  .00010399  00000-0  71605-3 0  9991","MEAN_MOTION_DDOT":"0.0000000000000","DECAY_DATE":null},{"SITE":"AFETR","BSTAR":"0.00067625000000","COUNTRY_CODE":"US","ARG_OF_PERICENTER":"65.5394","CLASSIFICATION_TYPE":"U","RA_OF_ASC_NODE":"180.3395","OBJECT_NAME":"STARLINK-2215","ELEMENT_SET_NO":"999","NORAD_CAT_ID":"48567","RCS_SIZE":"LARGE","OBJECT_ID":"2021-041Q","PERIAPSIS":"546.299","INCLINATION":"53.0544","TLE_LINE2":"2 48567  53.0544 180.3395 0001322  65.5394 294.5733 15.06399594 46196","MEAN_MOTION":"15.06399594","PERIOD":"95.592","SEMIMAJOR_AXIS":"6925.350","MEAN_ELEMENT_THEORY":"SGP4","REV_AT_EPOCH":"4619","OBJECT_TYPE":"PAYLOAD","FILE":"3364342","GP_ID":"199044276","CENTER_NAME":"EARTH","MEAN_MOTION_DOT":"0.00009805","ECCENTRICITY":"0.00013220","EPOCH":"2022-03-18T14:10:57.711936","EPHEMERIS_TYPE":"0","LAUNCH_DATE":"2021-05-15","TIME_SYSTEM":"UTC","REF_FRAME":"TEME","APOAPSIS":"548.130","DECAY_DATE":null,"MEAN_ANOMALY":"294.5733","TLE_LINE1":"1 48567U 21041Q   22077.59094574  .00009805  00000-0  67625-3 0  9990","MEAN_MOTION_DDOT":"0.0000000000000"},{"MEAN_ANOMALY":"290.3207","TLE_LINE1":"1 48568U 21041R   22077.47022404  .00014726  00000-0  10048-2 0  9995","MEAN_MOTION_DDOT":"0.0000000000000","DECAY_DATE":null,"EPHEMERIS_TYPE":"0","ECCENTRICITY":"0.00013200","EPOCH":"2022-03-18T11:17:07.357056","LAUNCH_DATE":"2021-05-15","TIME_SYSTEM":"UTC","REF_FRAME":"TEME","APOAPSIS":"548.056","CENTER_NAME":"EARTH","MEAN_MOTION_DOT":"0.00014726","SEMIMAJOR_AXIS":"6925.277","REV_AT_EPOCH":"4671","MEAN_ELEMENT_THEORY":"SGP4","FILE":"3364608","GP_ID":"199078907","OBJECT_TYPE":"PAYLOAD","TLE_LINE2":"2 48568  53.0554 170.8858 0001320  69.7924 290.3207 15.06423456 46712","INCLINATION":"53.0554","PERIAPSIS":"546.228","OBJECT_ID":"2021-041R","MEAN_MOTION":"15.06423456","PERIOD":"95.591","ELEMENT_SET_NO":"999","NORAD_CAT_ID":"48568","RCS_SIZE":"MEDIUM","SITE":"AFETR","BSTAR":"0.00100480000000","COUNTRY_CODE":"US","CLASSIFICATION_TYPE":"U","OBJECT_NAME":"STARLINK-2217","RA_OF_ASC_NODE":"170.8858","ARG_OF_PERICENTER":"69.7924"},{"DECAY_DATE":null,"TLE_LINE1":"1 48569U 21041S   22077.56238178  .00005723  00000-0  40291-3 0  9994","MEAN_ANOMALY":"295.4052","MEAN_MOTION_DDOT":"0.0000000000000","CENTER_NAME":"EARTH","MEAN_MOTION_DOT":"0.00005723","EPHEMERIS_TYPE":"0","EPOCH":"2022-03-18T13:29:49.785792","ECCENTRICITY":"0.00016250","LAUNCH_DATE":"2021-05-15","TIME_SYSTEM":"UTC","REF_FRAME":"TEME","APOAPSIS":"548.374","TLE_LINE2":"2 48569  53.0541 170.4858 0001625  64.7105 295.4052 15.06388424 46336","PERIAPSIS":"546.124","INCLINATION":"53.0541","OBJECT_ID":"2021-041S","MEAN_MOTION":"15.06388424","PERIOD":"95.593","SEMIMAJOR_AXIS":"6925.384","MEAN_ELEMENT_THEORY":"SGP4","REV_AT_EPOCH":"4633","GP_ID":"199044777","FILE":"3364342","OBJECT_TYPE":"PAYLOAD","SITE":"AFETR","BSTAR":"0.00040291000000","COUNTRY_CODE":"US","OBJECT_NAME":"STARLINK-2219","CLASSIFICATION_TYPE":"U","RA_OF_ASC_NODE":"170.4858","ARG_OF_PERICENTER":"64.7105","NORAD_CAT_ID":"48569","ELEMENT_SET_NO":"999","RCS_SIZE":"LARGE"}];
